{"type": "FeatureCollection", "features": [ {"type": "Feature", "properties": {"norad_id": 47012, "name": "FENGYUN 1C DEB", "group": "fengyun-1c-debris", "lat": -35.218395843234724, "lon": -125.10963629827978, "alt_km": 973.5773724653754, "timestamp": "2025-12-16T10:53:45.760407+00:00", "meta": {"OBJECT_NAME": "FENGYUN 1C DEB", "OBJECT_ID": "1999-025FAN", "EPOCH": "2025-12-05T22:22:36.481152", "MEAN_MOTION": 13.77908149, "ECCENTRICITY": 0.01638485, "INCLINATION": 98.755, "RA_OF_ASC_NODE": 218.9381, "ARG_OF_PERICENTER": 81.7177, "MEAN_ANOMALY": 280.2518, "EPHEMERIS_TYPE": 0, "CLASSIFICATION_TYPE": "U", "NORAD_CAT_ID": 47012, "ELEMENT_SET_NO": 999, "REV_AT_EPOCH": 54479, "BSTAR": 0.00065808903, "MEAN_MOTION_DOT": 6.91e-06, "MEAN_MOTION_DDOT": 0}, "tle": {"line1": "1 47012U 99025FAN 25339.93236668  .00000691  00000+0  65809-3 0  9990", "line2": "2 47012  98.7550 218.9381 0163848  81.7177 280.2518 13.77908149544797"}}, "geometry": {"type": "Point", "coordinates": [-125.10963629827978, -35.218395843234724]}}, {"type": "Feature", "properties": {"norad_id": 47013, "name": "FENGYUN 1C DEB", "group": "fengyun-1c-debris", "lat": 15.156974701314153, "lon": 57.755066167528966, "alt_km": 836.7981736924539, "timestamp": "2025-12-16T10:53:45.760418+00:00", "meta": {"OBJECT_NAME": "FENGYUN 1C DEB", "OBJECT_ID": "1999-025FAP", "EPOCH": "2025-11-16T11:10:59.954016", "MEAN_MOTION": 14.24672933, "ECCENTRICITY": 0.00559466, "INCLINATION": 98.0819, "RA_OF_ASC_NODE": 32.3431, "ARG_OF_PERICENTER": 238.0397, "MEAN_ANOMALY": 121.5338, "EPHEMERIS_TYPE": 0, "CLASSIFICATION_TYPE": "U", "NORAD_CAT_ID": 47013, "ELEMENT_SET_NO": 999, "REV_AT_EPOCH": 72885, "BSTAR": 0.0028202138, "MEAN_MOTION_DOT": 6.632e-05, "MEAN_MOTION_DDOT": 0}, "tle": {"line1": "1 47013U 99025FAP 25320.46597169  .00006632  00000+0  28202-2 0  9991", "line2": "2 47013  98.0819  32.3431 0055946 238.0397 121.5338 14.24672933728853"}}, "geometry": {"type": "Point", "coordinates": [57.755066167528966, 15.156974701314153]}}, {"type": "Feature", "properties": {"norad_id": 47015, "name": "FENGYUN 1C DEB", "group": "fengyun-1c-debris", "lat": -41.26530695011991, "lon": 55.256142691141996, "alt_km": 709.1550430414836, "timestamp": "2025-12-16T10:53:45.760428+00:00", "meta": {"OBJECT_NAME": "FENGYUN 1C DEB", "OBJECT_ID": "1999-025FAR", "EPOCH": "2025-12-14T21:57:12.520800", "MEAN_MOTION": 14.87408394, "ECCENTRICITY": 0.01759524, "INCLINATION": 98.7101, "RA_OF_ASC_NODE": 45.8366, "ARG_OF_PERICENTER": 105.6228, "MEAN_ANOMALY": 256.448, "EPHEMERIS_TYPE": 0, "CLASSIFICATION_TYPE": "U", "NORAD_CAT_ID": 47015, "ELEMENT_SET_NO": 999, "REV_AT_EPOCH": 64414, "BSTAR": 0.00051237919, "MEAN_MOTION_DOT": 6.095e-05, "MEAN_MOTION_DDOT": 0}, "tle": {"line1": "1 47015U 99025FAR 25348.91472825  .00006095  00000+0  51238-3 0  9993", "line2": "2 47015  98.7101  45.8366 0175952 105.6228 256.4480 14.87408394644146"}}, "geometry": {"type": "Point", "coordinates": [55.256142691141996, -41.26530695011991]}}, {"type": "Feature", "properties": {"norad_id": 47025, "name": "FENGYUN 1C DEB", "group": "fengyun-1c-debris", "lat": 62.851604170849974, "lon": 35.30304818325287, "alt_km": 749.6244537137063, "timestamp": "2025-12-16T10:53:45.760438+00:00", "meta": {"OBJECT_NAME": "FENGYUN 1C DEB", "OBJECT_ID": "1999-025FBB", "EPOCH": "2025-12-14T20:15:32.488128", "MEAN_MOTION": 14.46327515, "ECCENTRICITY": 0.00406551, "INCLINATION": 99.0332, "RA_OF_ASC_NODE": 195.5156, "ARG_OF_PERICENTER": 351.3377, "MEAN_ANOMALY": 26.432, "EPHEMERIS_TYPE": 0, "CLASSIFICATION_TYPE": "U", "NORAD_CAT_ID": 47025, "ELEMENT_SET_NO": 999, "REV_AT_EPOCH": 62772, "BSTAR": 0.0016318651, "MEAN_MOTION_DOT": 5.866e-05, "MEAN_MOTION_DDOT": 0}, "tle": {"line1": "1 47025U 99025FBB 25348.84412602  .00005866  00000+0  16319-2 0  9998", "line2": "2 47025  99.0332 195.5156 0040655 351.3377  26.4320 14.46327515627726"}}, "geometry": {"type": "Point", "coordinates": [35.30304818325287, 62.851604170849974]}}, {"type": "Feature", "properties": {"norad_id": 47036, "name": "FENGYUN 1C DEB", "group": "fengyun-1c-debris", "lat": -41.77726441042483, "lon": -154.09845155873316, "alt_km": 883.3289337237711, "timestamp": "2025-12-16T10:53:45.760448+00:00", "meta": {"OBJECT_NAME": "FENGYUN 1C DEB", "OBJECT_ID": "1999-025FBN", "EPOCH": "2025-12-13T21:36:35.845632", "MEAN_MOTION": 14.15176928, "ECCENTRICITY": 0.00688587, "INCLINATION": 98.7222, "RA_OF_ASC_NODE": 31.2877, "ARG_OF_PERICENTER": 94.4248, "MEAN_ANOMALY": 84.992, "EPHEMERIS_TYPE": 0, "CLASSIFICATION_TYPE": "U", "NORAD_CAT_ID": 47036, "ELEMENT_SET_NO": 999, "REV_AT_EPOCH": 59943, "BSTAR": 0.0001889836, "MEAN_MOTION_DOT": 3.33e-06, "MEAN_MOTION_DDOT": 0}, "tle": {"line1": "1 47036U 99025FBN 25347.90041488  .00000333  00000+0  18898-3 0  9995", "line2": "2 47036  98.7222  31.2877 0068858  94.4248  84.9920 14.15176928599432"}}, "geometry": {"type": "Point", "coordinates": [-154.09845155873316, -41.77726441042483]}}, {"type": "Feature", "properties": {"norad_id": 47040, "name": "FENGYUN 1C DEB", "group": "fengyun-1c-debris", "lat": -70.06862547624394, "lon": 47.6432646658422, "alt_km": 839.1134994547401, "timestamp": "2025-12-16T10:53:45.760458+00:00", "meta": {"OBJECT_NAME": "FENGYUN 1C DEB", "OBJECT_ID": "1999-025FBS", "EPOCH": "2025-12-10T23:56:36.325824", "MEAN_MOTION": 14.06483958, "ECCENTRICITY": 0.00627252, "INCLINATION": 100.2943, "RA_OF_ASC_NODE": 251.5252, "ARG_OF_PERICENTER": 237.4301, "MEAN_ANOMALY": 122.0795, "EPHEMERIS_TYPE": 0, "CLASSIFICATION_TYPE": "U", "NORAD_CAT_ID": 47040, "ELEMENT_SET_NO": 999, "REV_AT_EPOCH": 89084, "BSTAR": 0.00064394729, "MEAN_MOTION_DOT": 1.028e-05, "MEAN_MOTION_DDOT": 0}, "tle": {"line1": "1 47040U 99025FBS 25344.99764266  .00001028  00000+0  64395-3 0  9997", "line2": "2 47040 100.2943 251.5252 0062725 237.4301 122.0795 14.06483958890843"}}, "geometry": {"type": "Point", "coordinates": [47.6432646658422, -70.06862547624394]}}, {"type": "Feature", "properties": {"norad_id": 47041, "name": "FENGYUN 1C DEB", "group": "fengyun-1c-debris", "lat": 74.93617784533174, "lon": -15.407800217355566, "alt_km": 537.6457087026574, "timestamp": "2025-12-16T10:53:45.760469+00:00", "meta": {"OBJECT_NAME": "FENGYUN 1C DEB", "OBJECT_ID": "1999-025FBT", "EPOCH": "2025-12-10T19:53:59.087040", "MEAN_MOTION": 15.06982698, "ECCENTRICITY": 0.00146942, "INCLINATION": 98.256, "RA_OF_ASC_NODE": 11.2097, "ARG_OF_PERICENTER": 191.3996, "MEAN_ANOMALY": 344.1998, "EPHEMERIS_TYPE": 0, "CLASSIFICATION_TYPE": "U", "NORAD_CAT_ID": 47041, "ELEMENT_SET_NO": 999, "REV_AT_EPOCH": 71160, "BSTAR": 0.0030573384, "MEAN_MOTION_DOT": 0.00046063, "MEAN_MOTION_DDOT": 0}, "tle": {"line1": "1 47041U 99025FBT 25344.82915610  .00046063  00000+0  30573-2 0  9999", "line2": "2 47041  98.2560  11.2097 0014694 191.3996 344.1998 15.06982698711607"}}, "geometry": {"type": "Point", "coordinates": [-15.407800217355566, 74.93617784533174]}}, {"type": "Feature", "properties": {"norad_id": 47042, "name": "FENGYUN 1C DEB", "group": "fengyun-1c-debris", "lat": 61.724009753117706, "lon": -129.09913994294473, "alt_km": 778.812960136569, "timestamp": "2025-12-16T10:53:45.760479+00:00", "meta": {"OBJECT_NAME": "FENGYUN 1C DEB", "OBJECT_ID": "1999-025FBU", "EPOCH": "2025-12-15T23:05:08.155680", "MEAN_MOTION": 14.2284009, "ECCENTRICITY": 0.00551983, "INCLINATION": 99.0019, "RA_OF_ASC_NODE": 247.5376, "ARG_OF_PERICENTER": 25.421, "MEAN_ANOMALY": 38.0688, "EPHEMERIS_TYPE": 0, "CLASSIFICATION_TYPE": "U", "NORAD_CAT_ID": 47042, "ELEMENT_SET_NO": 999, "REV_AT_EPOCH": 62567, "BSTAR": 0.0002606593, "MEAN_MOTION_DOT": 5.48e-06, "MEAN_MOTION_DDOT": 0}, "tle": {"line1": "1 47042U 99025FBU 25349.96189995  .00000548  00000+0  26066-3 0  9990", "line2": "2 47042  99.0019 247.5376 0055198  25.4210  38.0688 14.22840090625672"}}, "geometry": {"type": "Point", "coordinates": [-129.09913994294473, 61.724009753117706]}}, {"type": "Feature", "properties": {"norad_id": 47100, "name": "FENGYUN 1C DEB", "group": "fengyun-1c-debris", "lat": -30.08286102750996, "lon": -15.029319908758549, "alt_km": 768.9765521698328, "timestamp": "2025-12-16T10:53:45.760490+00:00", "meta": {"OBJECT_NAME": "FENGYUN 1C DEB", "OBJECT_ID": "1999-025FBY", "EPOCH": "2025-12-15T10:45:46.190592", "MEAN_MOTION": 14.51469293, "ECCENTRICITY": 0.00893341, "INCLINATION": 99.0199, "RA_OF_ASC_NODE": 169.1719, "ARG_OF_PERICENTER": 345.5453, "MEAN_ANOMALY": 14.3186, "EPHEMERIS_TYPE": 0, "CLASSIFICATION_TYPE": "U", "NORAD_CAT_ID": 47100, "ELEMENT_SET_NO": 999, "REV_AT_EPOCH": 26807, "BSTAR": 0.0012060995, "MEAN_MOTION_DOT": 5.021e-05, "MEAN_MOTION_DDOT": 0}, "tle": {"line1": "1 47100U 99025FBY 25349.44845128  .00005021  00000+0  12061-2 0  9995", "line2": "2 47100  99.0199 169.1719 0089334 345.5453  14.3186 14.51469293268071"}}, "geometry": {"type": "Point", "coordinates": [-15.029319908758549, -30.08286102750996]}}, {"type": "Feature", "properties": {"norad_id": 47104, "name": "FENGYUN 1C DEB", "group": "fengyun-1c-debris", "lat": 74.08568704834583, "lon": -13.350366816048938, "alt_km": 830.1177208195977, "timestamp": "2025-12-16T10:53:45.760499+00:00", "meta": {"OBJECT_NAME": "FENGYUN 1C DEB", "OBJECT_ID": "1999-025FCC", "EPOCH": "2025-12-05T07:14:15.762912", "MEAN_MOTION": 14.19416271, "ECCENTRICITY": 0.00406545, "INCLINATION": 98.9092, "RA_OF_ASC_NODE": 8.8127, "ARG_OF_PERICENTER": 358.5803, "MEAN_ANOMALY": 1.5251, "EPHEMERIS_TYPE": 0, "CLASSIFICATION_TYPE": "U", "NORAD_CAT_ID": 47104, "ELEMENT_SET_NO": 999, "REV_AT_EPOCH": 62267, "BSTAR": 0.00037828604, "MEAN_MOTION_DOT": 7.57e-06, "MEAN_MOTION_DDOT": 0}, "tle": {"line1": "1 47104U 99025FCC 25339.30157133  .00000757  00000+0  37829-3 0  9996", "line2": "2 47104  98.9092   8.8127 0040654 358.5803   1.5251 14.19416271622675"}}, "geometry": {"type": "Point", "coordinates": [-13.350366816048938, 74.08568704834583]}}]}